<?xml version="1.0" encoding="UTF-8"?>
<ndm xmlns:xsi="http://www.w3.org/2001/XMLSchema-instance" xsi:noNamespaceSchemaLocation="https://sanaregistry.org/r/ndmxml_unqualified/ndmxml-2.0.0-master-2.0.xsd">
<omm id="CCSDS_OMM_VERS" version="2.0">
<header><CREATION_DATE/><ORIGINATOR/></header><body><segment><metadata><OBJECT_NAME>KUIPER-00027</OBJECT_NAME><OBJECT_ID>2025-088S</OBJECT_ID><CENTER_NAME>EARTH</CENTER_NAME><REF_FRAME>TEME</REF_FRAME><TIME_SYSTEM>UTC</TIME_SYSTEM><MEAN_ELEMENT_THEORY>SGP4</MEAN_ELEMENT_THEORY></metadata><data><meanElements><EPOCH>2025-08-28T14:00:11.999808</EPOCH><MEAN_MOTION>15.12300552</MEAN_MOTION><ECCENTRICITY>.00014517</ECCENTRICITY><INCLINATION>51.8932</INCLINATION><RA_OF_ASC_NODE>232.2413</RA_OF_ASC_NODE><ARG_OF_PERICENTER>245.1715</ARG_OF_PERICENTER><MEAN_ANOMALY>32.6880</MEAN_ANOMALY></meanElements><tleParameters><EPHEMERIS_TYPE>0</EPHEMERIS_TYPE><CLASSIFICATION_TYPE>U</CLASSIFICATION_TYPE><NORAD_CAT_ID>63740</NORAD_CAT_ID><ELEMENT_SET_NO>999</ELEMENT_SET_NO><REV_AT_EPOCH>452</REV_AT_EPOCH><BSTAR>-.18251628E-2</BSTAR><MEAN_MOTION_DOT>-.32145E-3</MEAN_MOTION_DOT><MEAN_MOTION_DDOT>0</MEAN_MOTION_DDOT></tleParameters></data></segment></body></omm>
<omm id="CCSDS_OMM_VERS" version="2.0">
<header><CREATION_DATE/><ORIGINATOR/></header><body><segment><metadata><OBJECT_NAME>KUIPER-00028</OBJECT_NAME><OBJECT_ID>2025-088T</OBJECT_ID><CENTER_NAME>EARTH</CENTER_NAME><REF_FRAME>TEME</REF_FRAME><TIME_SYSTEM>UTC</TIME_SYSTEM><MEAN_ELEMENT_THEORY>SGP4</MEAN_ELEMENT_THEORY></metadata><data><meanElements><EPOCH>2025-08-28T14:00:11.999808</EPOCH><MEAN_MOTION>15.17185872</MEAN_MOTION><ECCENTRICITY>.00017813</ECCENTRICITY><INCLINATION>51.8913</INCLINATION><RA_OF_ASC_NODE>231.4330</RA_OF_ASC_NODE><ARG_OF_PERICENTER>208.5339</ARG_OF_PERICENTER><MEAN_ANOMALY>68.1667</MEAN_ANOMALY></meanElements><tleParameters><EPHEMERIS_TYPE>0</EPHEMERIS_TYPE><CLASSIFICATION_TYPE>U</CLASSIFICATION_TYPE><NORAD_CAT_ID>63741</NORAD_CAT_ID><ELEMENT_SET_NO>999</ELEMENT_SET_NO><REV_AT_EPOCH>467</REV_AT_EPOCH><BSTAR>-.7926326E-2</BSTAR><MEAN_MOTION_DOT>-.156419E-2</MEAN_MOTION_DOT><MEAN_MOTION_DDOT>0</MEAN_MOTION_DDOT></tleParameters></data></segment></body></omm>
<omm id="CCSDS_OMM_VERS" version="2.0">
<header><CREATION_DATE/><ORIGINATOR/></header><body><segment><metadata><OBJECT_NAME>KUIPER-00029</OBJECT_NAME><OBJECT_ID>2025-088U</OBJECT_ID><CENTER_NAME>EARTH</CENTER_NAME><REF_FRAME>TEME</REF_FRAME><TIME_SYSTEM>UTC</TIME_SYSTEM><MEAN_ELEMENT_THEORY>SGP4</MEAN_ELEMENT_THEORY></metadata><data><meanElements><EPOCH>2025-08-28T14:00:11.999808</EPOCH><MEAN_MOTION>15.22082877</MEAN_MOTION><ECCENTRICITY>.00029931</ECCENTRICITY><INCLINATION>51.8781</INCLINATION><RA_OF_ASC_NODE>231.2615</RA_OF_ASC_NODE><ARG_OF_PERICENTER>194.0570</ARG_OF_PERICENTER><MEAN_ANOMALY>137.4964</MEAN_ANOMALY></meanElements><tleParameters><EPHEMERIS_TYPE>0</EPHEMERIS_TYPE><CLASSIFICATION_TYPE>U</CLASSIFICATION_TYPE><NORAD_CAT_ID>63742</NORAD_CAT_ID><ELEMENT_SET_NO>999</ELEMENT_SET_NO><REV_AT_EPOCH>338</REV_AT_EPOCH><BSTAR>-.6999168E-2</BSTAR><MEAN_MOTION_DOT>-.159254E-2</MEAN_MOTION_DOT><MEAN_MOTION_DDOT>0</MEAN_MOTION_DDOT></tleParameters></data></segment></body></omm>
<omm id="CCSDS_OMM_VERS" version="2.0">
<header><CREATION_DATE/><ORIGINATOR/></header><body><segment><metadata><OBJECT_NAME>KUIPER-00030</OBJECT_NAME><OBJECT_ID>2025-088V</OBJECT_ID><CENTER_NAME>EARTH</CENTER_NAME><REF_FRAME>TEME</REF_FRAME><TIME_SYSTEM>UTC</TIME_SYSTEM><MEAN_ELEMENT_THEORY>SGP4</MEAN_ELEMENT_THEORY></metadata><data><meanElements><EPOCH>2025-08-28T10:35:28.419360</EPOCH><MEAN_MOTION>14.79940759</MEAN_MOTION><ECCENTRICITY>.0014126</ECCENTRICITY><INCLINATION>51.9002</INCLINATION><RA_OF_ASC_NODE>245.0741</RA_OF_ASC_NODE><ARG_OF_PERICENTER>157.8525</ARG_OF_PERICENTER><MEAN_ANOMALY>202.3050</MEAN_ANOMALY></meanElements><tleParameters><EPHEMERIS_TYPE>0</EPHEMERIS_TYPE><CLASSIFICATION_TYPE>U</CLASSIFICATION_TYPE><NORAD_CAT_ID>63743</NORAD_CAT_ID><ELEMENT_SET_NO>999</ELEMENT_SET_NO><REV_AT_EPOCH>1901</REV_AT_EPOCH><BSTAR>.2315328E-3</BSTAR><MEAN_MOTION_DOT>.1544E-4</MEAN_MOTION_DOT><MEAN_MOTION_DDOT>0</MEAN_MOTION_DDOT></tleParameters></data></segment></body></omm>
<omm id="CCSDS_OMM_VERS" version="2.0">
<header><CREATION_DATE/><ORIGINATOR/></header><body><segment><metadata><OBJECT_NAME>KUIPER-00031</OBJECT_NAME><OBJECT_ID>2025-088W</OBJECT_ID><CENTER_NAME>EARTH</CENTER_NAME><REF_FRAME>TEME</REF_FRAME><TIME_SYSTEM>UTC</TIME_SYSTEM><MEAN_ELEMENT_THEORY>SGP4</MEAN_ELEMENT_THEORY></metadata><data><meanElements><EPOCH>2025-08-28T14:00:11.999808</EPOCH><MEAN_MOTION>15.08281029</MEAN_MOTION><ECCENTRICITY>.00026344</ECCENTRICITY><INCLINATION>51.8806</INCLINATION><RA_OF_ASC_NODE>232.9583</RA_OF_ASC_NODE><ARG_OF_PERICENTER>146.0356</ARG_OF_PERICENTER><MEAN_ANOMALY>85.0834</MEAN_ANOMALY></meanElements><tleParameters><EPHEMERIS_TYPE>0</EPHEMERIS_TYPE><CLASSIFICATION_TYPE>U</CLASSIFICATION_TYPE><NORAD_CAT_ID>63744</NORAD_CAT_ID><ELEMENT_SET_NO>999</ELEMENT_SET_NO><REV_AT_EPOCH>579</REV_AT_EPOCH><BSTAR>-.78357569E-2</BSTAR><MEAN_MOTION_DOT>-.121148E-2</MEAN_MOTION_DOT><MEAN_MOTION_DDOT>0</MEAN_MOTION_DDOT></tleParameters></data></segment></body></omm>
<omm id="CCSDS_OMM_VERS" version="2.0">
<header><CREATION_DATE/><ORIGINATOR/></header><body><segment><metadata><OBJECT_NAME>KUIPER-00032</OBJECT_NAME><OBJECT_ID>2025-088X</OBJECT_ID><CENTER_NAME>EARTH</CENTER_NAME><REF_FRAME>TEME</REF_FRAME><TIME_SYSTEM>UTC</TIME_SYSTEM><MEAN_ELEMENT_THEORY>SGP4</MEAN_ELEMENT_THEORY></metadata><data><meanElements><EPOCH>2025-08-27T16:24:40.608576</EPOCH><MEAN_MOTION>15.29425811</MEAN_MOTION><ECCENTRICITY>.00047902</ECCENTRICITY><INCLINATION>51.8709</INCLINATION><RA_OF_ASC_NODE>236.4042</RA_OF_ASC_NODE><ARG_OF_PERICENTER>134.5855</ARG_OF_PERICENTER><MEAN_ANOMALY>225.5520</MEAN_ANOMALY></meanElements><tleParameters><EPHEMERIS_TYPE>0</EPHEMERIS_TYPE><CLASSIFICATION_TYPE>U</CLASSIFICATION_TYPE><NORAD_CAT_ID>63745</NORAD_CAT_ID><ELEMENT_SET_NO>999</ELEMENT_SET_NO><REV_AT_EPOCH>1978</REV_AT_EPOCH><BSTAR>.58714257E-3</BSTAR><MEAN_MOTION_DOT>.16678E-3</MEAN_MOTION_DOT><MEAN_MOTION_DDOT>0</MEAN_MOTION_DDOT></tleParameters></data></segment></body></omm>
<omm id="CCSDS_OMM_VERS" version="2.0">
<header><CREATION_DATE/><ORIGINATOR/></header><body><segment><metadata><OBJECT_NAME>KUIPER-00033</OBJECT_NAME><OBJECT_ID>2025-088Y</OBJECT_ID><CENTER_NAME>EARTH</CENTER_NAME><REF_FRAME>TEME</REF_FRAME><TIME_SYSTEM>UTC</TIME_SYSTEM><MEAN_ELEMENT_THEORY>SGP4</MEAN_ELEMENT_THEORY></metadata><data><meanElements><EPOCH>2025-08-28T10:09:49.320000</EPOCH><MEAN_MOTION>14.79931085</MEAN_MOTION><ECCENTRICITY>.00026755</ECCENTRICITY><INCLINATION>51.8991</INCLINATION><RA_OF_ASC_NODE>261.2147</RA_OF_ASC_NODE><ARG_OF_PERICENTER>266.9680</ARG_OF_PERICENTER><MEAN_ANOMALY>93.0976</MEAN_ANOMALY></meanElements><tleParameters><EPHEMERIS_TYPE>0</EPHEMERIS_TYPE><CLASSIFICATION_TYPE>U</CLASSIFICATION_TYPE><NORAD_CAT_ID>63746</NORAD_CAT_ID><ELEMENT_SET_NO>999</ELEMENT_SET_NO><REV_AT_EPOCH>1898</REV_AT_EPOCH><BSTAR>.41192432E-3</BSTAR><MEAN_MOTION_DOT>.292E-4</MEAN_MOTION_DOT><MEAN_MOTION_DDOT>0</MEAN_MOTION_DDOT></tleParameters></data></segment></body></omm>
<omm id="CCSDS_OMM_VERS" version="2.0">
<header><CREATION_DATE/><ORIGINATOR/></header><body><segment><metadata><OBJECT_NAME>KUIPER-00034</OBJECT_NAME><OBJECT_ID>2025-088Z</OBJECT_ID><CENTER_NAME>EARTH</CENTER_NAME><REF_FRAME>TEME</REF_FRAME><TIME_SYSTEM>UTC</TIME_SYSTEM><MEAN_ELEMENT_THEORY>SGP4</MEAN_ELEMENT_THEORY></metadata><data><meanElements><EPOCH>2025-08-28T14:00:11.999808</EPOCH><MEAN_MOTION>15.28884841</MEAN_MOTION><ECCENTRICITY>.00012807</ECCENTRICITY><INCLINATION>51.8740</INCLINATION><RA_OF_ASC_NODE>230.0844</RA_OF_ASC_NODE><ARG_OF_PERICENTER>59.7696</ARG_OF_PERICENTER><MEAN_ANOMALY>164.1206</MEAN_ANOMALY></meanElements><tleParameters><EPHEMERIS_TYPE>0</EPHEMERIS_TYPE><CLASSIFICATION_TYPE>U</CLASSIFICATION_TYPE><NORAD_CAT_ID>63747</NORAD_CAT_ID><ELEMENT_SET_NO>999</ELEMENT_SET_NO><REV_AT_EPOCH>541</REV_AT_EPOCH><BSTAR>-.68226026E-2</BSTAR><MEAN_MOTION_DOT>-.189701E-2</MEAN_MOTION_DOT><MEAN_MOTION_DDOT>0</MEAN_MOTION_DDOT></tleParameters></data></segment></body></omm>

</ndm>
