KUIPER-00027            
1 63740U 25088S   25240.58347222 -.00032145  00000+0 -18252-2 0  9995
2 63740  51.8932 232.2413 0001451 245.1715  32.6880 15.12300552  4525
KUIPER-00028            
1 63741U 25088T   25240.58347222 -.00156419  00000+0 -79263-2 0  9996
2 63741  51.8913 231.4330 0001781 208.5339  68.1667 15.17185872  4679
KUIPER-00029            
1 63742U 25088U   25240.58347222 -.00159254  00000+0 -69992-2 0  9995
2 63742  51.8781 231.2615 0002993 194.0570 137.4964 15.22082877  3383
KUIPER-00030            
1 63743U 25088V   25240.44130115  .00001544  00000+0  23153-3 0  9998
2 63743  51.9002 245.0741 0014126 157.8525 202.3050 14.79940759 19010
KUIPER-00031            
1 63744U 25088W   25240.58347222 -.00121148  00000+0 -78358-2 0  9994
2 63744  51.8806 232.9583 0002634 146.0356  85.0834 15.08281029  5791
KUIPER-00032            
1 63745U 25088X   25239.68380334  .00016678  00000+0  58714-3 0  9999
2 63745  51.8709 236.4042 0004790 134.5855 225.5520 15.29425811 19783
KUIPER-00033            
1 63746U 25088Y   25240.42348750  .00002920  00000+0  41192-3 0  9997
2 63746  51.8991 261.2147 0002675 266.9680  93.0976 14.79931085 18988
KUIPER-00034            
1 63747U 25088Z   25240.58347222 -.00189701  00000+0 -68226-2 0  9999
2 63747  51.8740 230.0844 0001280  59.7696 164.1206 15.28884841  5417
